[{"OBJECT_NAME":"SZ-21 MODULE","OBJECT_ID":"2025-246C","EPOCH":"2026-03-08T11:33:38.438496","MEAN_MOTION":15.68439645,"ECCENTRICITY":0.00013767,"INCLINATION":41.4736,"RA_OF_ASC_NODE":210.796,"ARG_OF_PERICENTER":295.9249,"MEAN_ANOMALY":64.1451,"EPHEMERIS_TYPE":0,"CLASSIFICATION_TYPE":"U","NORAD_CAT_ID":66515,"ELEMENT_SET_NO":999,"REV_AT_EPOCH":1788,"BSTAR":0.00041839405,"MEAN_MOTION_DOT":0.00048562,"MEAN_MOTION_DDOT":0},{"OBJECT_NAME":"SHENZHOU-22","OBJECT_ID":"2025-272A","EPOCH":"2026-03-08T15:03:52.797024","MEAN_MOTION":15.6059651,"ECCENTRICITY":0.00069467,"INCLINATION":41.4663,"RA_OF_ASC_NODE":214.6233,"ARG_OF_PERICENTER":266.6705,"MEAN_ANOMALY":93.3339,"EPHEMERIS_TYPE":0,"CLASSIFICATION_TYPE":"U","NORAD_CAT_ID":66645,"ELEMENT_SET_NO":999,"REV_AT_EPOCH":26752,"BSTAR":0.00033079652,"MEAN_MOTION_DOT":0.00027939,"MEAN_MOTION_DDOT":0},{"OBJECT_NAME":"SOYUZ-MS 28","OBJECT_ID":"2025-275A","EPOCH":"2026-03-08T09:59:22.309152","MEAN_MOTION":15.48526204,"ECCENTRICITY":0.00080653,"INCLINATION":51.6319,"RA_OF_ASC_NODE":78.6521,"ARG_OF_PERICENTER":170.0958,"MEAN_ANOMALY":190.019,"EPHEMERIS_TYPE":0,"CLASSIFICATION_TYPE":"U","NORAD_CAT_ID":66664,"ELEMENT_SET_NO":999,"REV_AT_EPOCH":55452,"BSTAR":0.00021617095,"MEAN_MOTION_DOT":0.00011291,"MEAN_MOTION_DDOT":0},{"OBJECT_NAME":"DUPLEX","OBJECT_ID":"1998-067XS","EPOCH":"2026-03-08T10:19:31.725120","MEAN_MOTION":15.56119236,"ECCENTRICITY":0.00022721,"INCLINATION":51.6288,"RA_OF_ASC_NODE":75.7492,"ARG_OF_PERICENTER":106.3589,"MEAN_ANOMALY":253.7653,"EPHEMERIS_TYPE":0,"CLASSIFICATION_TYPE":"U","NORAD_CAT_ID":66906,"ELEMENT_SET_NO":999,"REV_AT_EPOCH":1493,"BSTAR":0.00062979677,"MEAN_MOTION_DOT":0.00044619,"MEAN_MOTION_DDOT":0},{"OBJECT_NAME":"ISS OBJECT XT","OBJECT_ID":"1998-067XT","EPOCH":"2026-03-08T07:24:56.473344","MEAN_MOTION":15.68765418,"ECCENTRICITY":0.00047131,"INCLINATION":51.6249,"RA_OF_ASC_NODE":72.6759,"ARG_OF_PERICENTER":69.3241,"MEAN_ANOMALY":290.8261,"EPHEMERIS_TYPE":0,"CLASSIFICATION_TYPE":"U","NORAD_CAT_ID":66907,"ELEMENT_SET_NO":999,"REV_AT_EPOCH":1496,"BSTAR":0.0018024497,"MEAN_MOTION_DOT":0.00215395,"MEAN_MOTION_DDOT":0},{"OBJECT_NAME":"ISS OBJECT XU","OBJECT_ID":"1998-067XU","EPOCH":"2026-03-08T05:50:46.029984","MEAN_MOTION":15.68848873,"ECCENTRICITY":0.00049112,"INCLINATION":51.6246,"RA_OF_ASC_NODE":72.986,"ARG_OF_PERICENTER":71.7703,"MEAN_ANOMALY":288.3828,"EPHEMERIS_TYPE":0,"CLASSIFICATION_TYPE":"U","NORAD_CAT_ID":66908,"ELEMENT_SET_NO":999,"REV_AT_EPOCH":1495,"BSTAR":0.0017892878,"MEAN_MOTION_DOT":0.0021454,"MEAN_MOTION_DDOT":0},{"OBJECT_NAME":"SILVERSAT","OBJECT_ID":"1998-067XV","EPOCH":"2026-03-08T13:34:03.669600","MEAN_MOTION":15.71749865,"ECCENTRICITY":0.00055693,"INCLINATION":51.625,"RA_OF_ASC_NODE":70.633,"ARG_OF_PERICENTER":69.6016,"MEAN_ANOMALY":290.558,"EPHEMERIS_TYPE":0,"CLASSIFICATION_TYPE":"U","NORAD_CAT_ID":66909,"ELEMENT_SET_NO":999,"REV_AT_EPOCH":1501,"BSTAR":0.0017565873,"MEAN_MOTION_DOT":0.00238432,"MEAN_MOTION_DDOT":0},{"OBJECT_NAME":"ISS OBJECT XW","OBJECT_ID":"1998-067XW","EPOCH":"2026-03-08T07:16:44.794272","MEAN_MOTION":15.68140942,"ECCENTRICITY":0.00051063,"INCLINATION":51.6242,"RA_OF_ASC_NODE":72.6301,"ARG_OF_PERICENTER":77.4385,"MEAN_ANOMALY":282.7182,"EPHEMERIS_TYPE":0,"CLASSIFICATION_TYPE":"U","NORAD_CAT_ID":66910,"ELEMENT_SET_NO":999,"REV_AT_EPOCH":1496,"BSTAR":0.001669832,"MEAN_MOTION_DOT":0.00193965,"MEAN_MOTION_DDOT":0},{"OBJECT_NAME":"ISS OBJECT XX","OBJECT_ID":"1998-067XX","EPOCH":"2026-03-08T13:32:57.844896","MEAN_MOTION":15.74751003,"ECCENTRICITY":0.00069978,"INCLINATION":51.6209,"RA_OF_ASC_NODE":69.8598,"ARG_OF_PERICENTER":75.4922,"MEAN_ANOMALY":284.6853,"EPHEMERIS_TYPE":0,"CLASSIFICATION_TYPE":"U","NORAD_CAT_ID":66911,"ELEMENT_SET_NO":999,"REV_AT_EPOCH":1501,"BSTAR":0.0019397433,"MEAN_MOTION_DOT":0.00301889,"MEAN_MOTION_DDOT":0},{"OBJECT_NAME":"ISS OBJECT XY","OBJECT_ID":"1998-067XY","EPOCH":"2026-03-08T05:44:44.166912","MEAN_MOTION":15.63375791,"ECCENTRICITY":0.00031514,"INCLINATION":51.6269,"RA_OF_ASC_NODE":74.4704,"ARG_OF_PERICENTER":80.3151,"MEAN_ANOMALY":279.8199,"EPHEMERIS_TYPE":0,"CLASSIFICATION_TYPE":"U","NORAD_CAT_ID":66912,"ELEMENT_SET_NO":999,"REV_AT_EPOCH":1492,"BSTAR":0.0013699421,"MEAN_MOTION_DOT":0.00130266,"MEAN_MOTION_DDOT":0},{"OBJECT_NAME":"ISS OBJECT XZ","OBJECT_ID":"1998-067XZ","EPOCH":"2026-03-08T05:54:51.044832","MEAN_MOTION":15.51696524,"ECCENTRICITY":0.00094218,"INCLINATION":51.6305,"RA_OF_ASC_NODE":79.0203,"ARG_OF_PERICENTER":180.7238,"MEAN_ANOMALY":179.374,"EPHEMERIS_TYPE":0,"CLASSIFICATION_TYPE":"U","NORAD_CAT_ID":67683,"ELEMENT_SET_NO":999,"REV_AT_EPOCH":456,"BSTAR":0.00089297909,"MEAN_MOTION_DOT":0.00054128,"MEAN_MOTION_DDOT":0},{"OBJECT_NAME":"GXIBA-1","OBJECT_ID":"1998-067YA","EPOCH":"2026-03-08T06:51:27.092736","MEAN_MOTION":15.54070328,"ECCENTRICITY":0.00109475,"INCLINATION":51.6303,"RA_OF_ASC_NODE":78.533,"ARG_OF_PERICENTER":170.9783,"MEAN_ANOMALY":189.1406,"EPHEMERIS_TYPE":0,"CLASSIFICATION_TYPE":"U","NORAD_CAT_ID":67684,"ELEMENT_SET_NO":999,"REV_AT_EPOCH":457,"BSTAR":0.0016923761,"MEAN_MOTION_DOT":0.00113172,"MEAN_MOTION_DDOT":0},{"OBJECT_NAME":"CORAL","OBJECT_ID":"1998-067YB","EPOCH":"2026-03-08T15:05:15.239904","MEAN_MOTION":15.52082391,"ECCENTRICITY":0.00113619,"INCLINATION":51.6311,"RA_OF_ASC_NODE":77.0726,"ARG_OF_PERICENTER":178.8737,"MEAN_ANOMALY":181.2281,"EPHEMERIS_TYPE":0,"CLASSIFICATION_TYPE":"U","NORAD_CAT_ID":67685,"ELEMENT_SET_NO":999,"REV_AT_EPOCH":462,"BSTAR":0.00094707132,"MEAN_MOTION_DOT":0.00058319,"MEAN_MOTION_DDOT":0},{"OBJECT_NAME":"ISS OBJECT YC","OBJECT_ID":"1998-067YC","EPOCH":"2026-03-08T11:52:26.901120","MEAN_MOTION":15.52582009,"ECCENTRICITY":0.00079257,"INCLINATION":51.631,"RA_OF_ASC_NODE":77.6801,"ARG_OF_PERICENTER":145.9342,"MEAN_ANOMALY":214.2158,"EPHEMERIS_TYPE":0,"CLASSIFICATION_TYPE":"U","NORAD_CAT_ID":67686,"ELEMENT_SET_NO":999,"REV_AT_EPOCH":460,"BSTAR":0.0011105263,"MEAN_MOTION_DOT":0.00069722,"MEAN_MOTION_DDOT":0},{"OBJECT_NAME":"LEOPARD","OBJECT_ID":"1998-067YD","EPOCH":"2026-03-08T07:24:26.872704","MEAN_MOTION":15.51875609,"ECCENTRICITY":0.00078243,"INCLINATION":51.6314,"RA_OF_ASC_NODE":78.6871,"ARG_OF_PERICENTER":149.3708,"MEAN_ANOMALY":210.774,"EPHEMERIS_TYPE":0,"CLASSIFICATION_TYPE":"U","NORAD_CAT_ID":67687,"ELEMENT_SET_NO":999,"REV_AT_EPOCH":449,"BSTAR":0.00096299264,"MEAN_MOTION_DOT":0.00058789,"MEAN_MOTION_DDOT":0},{"OBJECT_NAME":"ISS OBJECT YE","OBJECT_ID":"1998-067YE","EPOCH":"2026-03-08T11:55:46.214688","MEAN_MOTION":15.52342868,"ECCENTRICITY":0.00078669,"INCLINATION":51.6311,"RA_OF_ASC_NODE":77.6953,"ARG_OF_PERICENTER":146.933,"MEAN_ANOMALY":213.2153,"EPHEMERIS_TYPE":0,"CLASSIFICATION_TYPE":"U","NORAD_CAT_ID":67688,"ELEMENT_SET_NO":999,"REV_AT_EPOCH":452,"BSTAR":0.0010466061,"MEAN_MOTION_DOT":0.00065076,"MEAN_MOTION_DDOT":0}]
